{"type": "FeatureCollection", "features": [ {"type": "Feature", "properties": {"norad_id": 30996, "name": "FENGYUN 1C DEB", "group": "fengyun-1c-debris", "lat": 78.56532733987765, "lon": -147.59538917592093, "alt_km": 801.4835711111764, "timestamp": "2025-12-24T03:53:29.926983+00:00", "meta": {"OBJECT_NAME": "FENGYUN 1C DEB", "OBJECT_ID": "1999-025BCN", "EPOCH": "2025-12-23T04:49:10.994880", "MEAN_MOTION": 14.35461354, "ECCENTRICITY": 0.00495675, "INCLINATION": 98.9439, "RA_OF_ASC_NODE": 262.5406, "ARG_OF_PERICENTER": 260.8084, "MEAN_ANOMALY": 257.09, "EPHEMERIS_TYPE": 0, "CLASSIFICATION_TYPE": "U", "NORAD_CAT_ID": 30996, "ELEMENT_SET_NO": 999, "REV_AT_EPOCH": 97713, "BSTAR": 0.00085759981, "MEAN_MOTION_DOT": 2.452e-05, "MEAN_MOTION_DDOT": 0}, "tle": {"line1": "1 30996U 99025BCN 25357.20082170  .00002452  00000+0  85760-3 0  9995", "line2": "2 30996  98.9439 262.5406 0049567 260.8084 257.0900 14.35461354977131"}}, "geometry": {"type": "Point", "coordinates": [-147.59538917592093, 78.56532733987765]}}, {"type": "Feature", "properties": {"norad_id": 30998, "name": "FENGYUN 1C DEB", "group": "fengyun-1c-debris", "lat": -70.38734797117863, "lon": -123.71225525107334, "alt_km": 738.9451461962908, "timestamp": "2025-12-24T03:53:29.926994+00:00", "meta": {"OBJECT_NAME": "FENGYUN 1C DEB", "OBJECT_ID": "1999-025BCQ", "EPOCH": "2025-12-22T04:26:12.204672", "MEAN_MOTION": 14.48050479, "ECCENTRICITY": 0.00128094, "INCLINATION": 98.829, "RA_OF_ASC_NODE": 80.0844, "ARG_OF_PERICENTER": 169.5699, "MEAN_ANOMALY": 220.9049, "EPHEMERIS_TYPE": 0, "CLASSIFICATION_TYPE": "U", "NORAD_CAT_ID": 30998, "ELEMENT_SET_NO": 999, "REV_AT_EPOCH": 97327, "BSTAR": 0.0024879906, "MEAN_MOTION_DOT": 9.222e-05, "MEAN_MOTION_DDOT": 0}, "tle": {"line1": "1 30998U 99025BCQ 25356.18486348  .00009222  00000+0  24880-2 0  9995", "line2": "2 30998  98.8290  80.0844 0012809 169.5699 220.9049 14.48050479973272"}}, "geometry": {"type": "Point", "coordinates": [-123.71225525107334, -70.38734797117863]}}, {"type": "Feature", "properties": {"norad_id": 30999, "name": "FENGYUN 1C DEB", "group": "fengyun-1c-debris", "lat": 74.5369408696673, "lon": 137.5947828284592, "alt_km": 746.1176612351883, "timestamp": "2025-12-24T03:53:29.927004+00:00", "meta": {"OBJECT_NAME": "FENGYUN 1C DEB", "OBJECT_ID": "1999-025BCR", "EPOCH": "2025-12-23T17:39:29.837664", "MEAN_MOTION": 14.58476583, "ECCENTRICITY": 0.0112633, "INCLINATION": 99.0911, "RA_OF_ASC_NODE": 172.4966, "ARG_OF_PERICENTER": 304.4968, "MEAN_ANOMALY": 54.5632, "EPHEMERIS_TYPE": 0, "CLASSIFICATION_TYPE": "U", "NORAD_CAT_ID": 30999, "ELEMENT_SET_NO": 999, "REV_AT_EPOCH": 98991, "BSTAR": 0.00061366, "MEAN_MOTION_DOT": 3.048e-05, "MEAN_MOTION_DDOT": 0}, "tle": {"line1": "1 30999U 99025BCR 25357.73576201  .00003048  00000+0  61366-3 0  9997", "line2": "2 30999  99.0911 172.4966 0112633 304.4968  54.5632 14.58476583989918"}}, "geometry": {"type": "Point", "coordinates": [137.5947828284592, 74.5369408696673]}}, {"type": "Feature", "properties": {"norad_id": 31000, "name": "FENGYUN 1C DEB", "group": "fengyun-1c-debris", "lat": -50.337704467733026, "lon": -164.2226413099983, "alt_km": 980.8105728946848, "timestamp": "2025-12-24T03:53:29.927014+00:00", "meta": {"OBJECT_NAME": "FENGYUN 1C DEB", "OBJECT_ID": "1999-025BCS", "EPOCH": "2025-12-23T13:52:43.911264", "MEAN_MOTION": 14.09665871, "ECCENTRICITY": 0.0164856, "INCLINATION": 97.565, "RA_OF_ASC_NODE": 24.5093, "ARG_OF_PERICENTER": 34.6931, "MEAN_ANOMALY": 115.468, "EPHEMERIS_TYPE": 0, "CLASSIFICATION_TYPE": "U", "NORAD_CAT_ID": 31000, "ELEMENT_SET_NO": 999, "REV_AT_EPOCH": 70109, "BSTAR": 0.00050152, "MEAN_MOTION_DOT": 9.64e-06, "MEAN_MOTION_DDOT": 0}, "tle": {"line1": "1 31000U 99025BCS 25357.57828601  .00000964  00000+0  50152-3 0  9992", "line2": "2 31000  97.5650  24.5093 0164856  34.6931 115.4680 14.09665871701096"}}, "geometry": {"type": "Point", "coordinates": [-164.2226413099983, -50.337704467733026]}}, {"type": "Feature", "properties": {"norad_id": 31001, "name": "FENGYUN 1C DEB", "group": "fengyun-1c-debris", "lat": -72.3715011247067, "lon": -97.0141419888608, "alt_km": 857.9497431450791, "timestamp": "2025-12-24T03:53:29.927025+00:00", "meta": {"OBJECT_NAME": "FENGYUN 1C DEB", "OBJECT_ID": "1999-025BCT", "EPOCH": "2025-12-23T03:16:58.668960", "MEAN_MOTION": 14.42886652, "ECCENTRICITY": 0.014716, "INCLINATION": 99.2722, "RA_OF_ASC_NODE": 230.9335, "ARG_OF_PERICENTER": 122.0416, "MEAN_ANOMALY": 239.5163, "EPHEMERIS_TYPE": 0, "CLASSIFICATION_TYPE": "U", "NORAD_CAT_ID": 31001, "ELEMENT_SET_NO": 999, "REV_AT_EPOCH": 98356, "BSTAR": 0.00031638475, "MEAN_MOTION_DOT": 1.148e-05, "MEAN_MOTION_DDOT": 0}, "tle": {"line1": "1 31001U 99025BCT 25357.13679015  .00001148  00000+0  31638-3 0  9991", "line2": "2 31001  99.2722 230.9335 0147160 122.0416 239.5163 14.42886652983564"}}, "geometry": {"type": "Point", "coordinates": [-97.0141419888608, -72.3715011247067]}}, {"type": "Feature", "properties": {"norad_id": 31002, "name": "FENGYUN 1C DEB", "group": "fengyun-1c-debris", "lat": -25.06376253815438, "lon": 13.97391506086409, "alt_km": 834.0094286398189, "timestamp": "2025-12-24T03:53:29.927035+00:00", "meta": {"OBJECT_NAME": "FENGYUN 1C DEB", "OBJECT_ID": "1999-025BCU", "EPOCH": "2025-12-20T21:37:46.056000", "MEAN_MOTION": 13.9920967, "ECCENTRICITY": 0.0098565, "INCLINATION": 98.885, "RA_OF_ASC_NODE": 6.6158, "ARG_OF_PERICENTER": 325.1028, "MEAN_ANOMALY": 152.4938, "EPHEMERIS_TYPE": 0, "CLASSIFICATION_TYPE": "U", "NORAD_CAT_ID": 31002, "ELEMENT_SET_NO": 999, "REV_AT_EPOCH": 95719, "BSTAR": 0.00023571, "MEAN_MOTION_DOT": 3.13e-06, "MEAN_MOTION_DDOT": 0}, "tle": {"line1": "1 31002U 99025BCU 25354.90122750  .00000313  00000+0  23571-3 0  9993", "line2": "2 31002  98.8850   6.6158 0098565 325.1028 152.4938 13.99209670957195"}}, "geometry": {"type": "Point", "coordinates": [13.97391506086409, -25.06376253815438]}}, {"type": "Feature", "properties": {"norad_id": 31003, "name": "FENGYUN 1C DEB", "group": "fengyun-1c-debris", "lat": -60.75018307722024, "lon": 91.17282633694828, "alt_km": 829.4676379716011, "timestamp": "2025-12-24T03:53:29.927045+00:00", "meta": {"OBJECT_NAME": "FENGYUN 1C DEB", "OBJECT_ID": "1999-025BCV", "EPOCH": "2025-12-23T04:35:16.229184", "MEAN_MOTION": 14.24757318, "ECCENTRICITY": 0.00420419, "INCLINATION": 98.8421, "RA_OF_ASC_NODE": 74.0572, "ARG_OF_PERICENTER": 185.0348, "MEAN_ANOMALY": 175.0413, "EPHEMERIS_TYPE": 0, "CLASSIFICATION_TYPE": "U", "NORAD_CAT_ID": 31003, "ELEMENT_SET_NO": 999, "REV_AT_EPOCH": 96658, "BSTAR": 0.0013510323, "MEAN_MOTION_DOT": 3.132e-05, "MEAN_MOTION_DDOT": 0}, "tle": {"line1": "1 31003U 99025BCV 25357.19116006  .00003132  00000+0  13510-2 0  9998", "line2": "2 31003  98.8421  74.0572 0042041 185.0348 175.0413 14.24757318966583"}}, "geometry": {"type": "Point", "coordinates": [91.17282633694828, -60.75018307722024]}}, {"type": "Feature", "properties": {"norad_id": 31005, "name": "FENGYUN 1C DEB", "group": "fengyun-1c-debris", "lat": -36.58044707975372, "lon": 137.41500162741593, "alt_km": 841.7087649626474, "timestamp": "2025-12-24T03:53:29.927056+00:00", "meta": {"OBJECT_NAME": "FENGYUN 1C DEB", "OBJECT_ID": "1999-025BCX", "EPOCH": "2025-12-19T20:39:31.442112", "MEAN_MOTION": 13.83298695, "ECCENTRICITY": 0.01808266, "INCLINATION": 98.6131, "RA_OF_ASC_NODE": 127.0159, "ARG_OF_PERICENTER": 305.9328, "MEAN_ANOMALY": 207.436, "EPHEMERIS_TYPE": 0, "CLASSIFICATION_TYPE": "U", "NORAD_CAT_ID": 31005, "ELEMENT_SET_NO": 999, "REV_AT_EPOCH": 94379, "BSTAR": 0.00095824109, "MEAN_MOTION_DOT": 1.153e-05, "MEAN_MOTION_DDOT": 0}, "tle": {"line1": "1 31005U 99025BCX 25353.86078058  .00001153  00000+0  95824-3 0  9994", "line2": "2 31005  98.6131 127.0159 0180826 305.9328 207.4360 13.83298695943797"}}, "geometry": {"type": "Point", "coordinates": [137.41500162741593, -36.58044707975372]}}, {"type": "Feature", "properties": {"norad_id": 31007, "name": "FENGYUN 1C DEB", "group": "fengyun-1c-debris", "lat": -65.07526195923855, "lon": 151.84487323696075, "alt_km": 724.876861120777, "timestamp": "2025-12-24T03:53:29.927066+00:00", "meta": {"OBJECT_NAME": "FENGYUN 1C DEB", "OBJECT_ID": "1999-025BCZ", "EPOCH": "2025-12-22T22:46:46.238592", "MEAN_MOTION": 14.58840896, "ECCENTRICITY": 0.0066675, "INCLINATION": 98.0881, "RA_OF_ASC_NODE": 348.4823, "ARG_OF_PERICENTER": 6.631, "MEAN_ANOMALY": 353.5757, "EPHEMERIS_TYPE": 0, "CLASSIFICATION_TYPE": "U", "NORAD_CAT_ID": 31007, "ELEMENT_SET_NO": 999, "REV_AT_EPOCH": 98243, "BSTAR": 0.002448, "MEAN_MOTION_DOT": 0.00011781, "MEAN_MOTION_DDOT": 0}, "tle": {"line1": "1 31007U 99025BCZ 25356.94914628  .00011781  00000+0  24480-2 0  9997", "line2": "2 31007  98.0881 348.4823 0066675   6.6310 353.5757 14.58840896982439"}}, "geometry": {"type": "Point", "coordinates": [151.84487323696075, -65.07526195923855]}}, {"type": "Feature", "properties": {"norad_id": 31009, "name": "FENGYUN 1C DEB", "group": "fengyun-1c-debris", "lat": -76.6496584326347, "lon": 34.978671111641056, "alt_km": 889.6067302294296, "timestamp": "2025-12-24T03:53:29.927076+00:00", "meta": {"OBJECT_NAME": "FENGYUN 1C DEB", "OBJECT_ID": "1999-025BDB", "EPOCH": "2025-12-22T11:54:20.822112", "MEAN_MOTION": 14.00367101, "ECCENTRICITY": 0.00530683, "INCLINATION": 98.8966, "RA_OF_ASC_NODE": 352.0568, "ARG_OF_PERICENTER": 209.6888, "MEAN_ANOMALY": 315.1225, "EPHEMERIS_TYPE": 0, "CLASSIFICATION_TYPE": "U", "NORAD_CAT_ID": 31009, "ELEMENT_SET_NO": 999, "REV_AT_EPOCH": 95997, "BSTAR": 6.3793383e-05, "MEAN_MOTION_DOT": 5.2e-07, "MEAN_MOTION_DDOT": 0}, "tle": {"line1": "1 31009U 99025BDB 25356.49607433  .00000052  00000+0  63793-4 0  9993", "line2": "2 31009  98.8966 352.0568 0053068 209.6888 315.1225 14.00367101959974"}}, "geometry": {"type": "Point", "coordinates": [34.978671111641056, -76.6496584326347]}}]}